BRITE-AUSTRIA           
1 39091U 13009F   24035.51678884  .00000364  00000+0  14092-3 0  9997
2 39091  98.3844 226.7362 0009423 302.2561  57.7711 14.35672576573082
NEE-01 PEGASO           
1 39151U 13018B   24035.54010502  .00003939  00000+0  47299-3 0  9990
2 39151  98.0217 151.6167 0016477 114.0736 246.2204 14.84490297582139
ESTCUBE 1               
1 39161U 13021C   24035.17629814  .00002065  00000+0  31039-3 0  9990
2 39161  97.8460 105.7167 0008005 308.2616  51.7873 14.75512611577320
POPACS 1                
1 39268U 13055D   24034.44560095  .00025834  00000+0  49934-3 0  9991
2 39268  80.9864 304.6052 0446874 162.4306 199.2954 14.82213358540511
POPACS 2                
1 39269U 13055E   24035.38739537  .00027187  00000+0  65402-3 0  9996
2 39269  81.0043  24.0687 0573738   9.7375 351.4382 14.51207320536159
POPACS 3                
1 39270U 13055F   24032.54747861  .00009865  00000+0  27580-3 0  9990
2 39270  81.0079  73.5007 0643254 148.3334 215.8295 14.33309416513364
ZACUBE-1 (TSHEPISOSAT)  
1 39417U 13066B   24035.46203427  .00004631  00000+0  50609-3 0  9998
2 39417  97.7176 354.7644 0050803 241.6254 117.9835 14.87398106551693
WNISAT-1                
1 39423U 13066H   24035.53995416  .00000921  00000+0  18486-3 0  9994
2 39423  97.6778 240.6633 0172452  68.8998 293.0541 14.54804334541000
TRITON-1                
1 39427U 13066M   24035.53800756  .00002722  00000+0  39746-3 0  9993
2 39427  97.8427 317.9705 0105573 151.3465 209.3601 14.72781037546536
DELFI-N3XT              
1 39428U 13066N   24035.32786153  .00005077  00000+0  68447-3 0  9991
2 39428  97.8394 317.4543 0105326 160.8838 199.6371 14.75750738546330
GOMX-1                  
1 39430U 13066Q   24035.60704734  .00003538  00000+0  60327-3 0  9999
2 39430  97.7526 278.0119 0141517 317.6239  41.4102 14.63192354543322
CUBEBUG-2 (LO-74)       
1 39440U 13066AA  24035.53781027  .00006484  00000+0  79420-3 0  9999
2 39440  97.7996 342.3799 0071990 352.0080   7.9980 14.81657937548539
NEE-02 KRYSAOR          
1 39441U 13066AB  24035.39943174  .00003981  00000+0  52034-3 0  9998
2 39441  97.8100 338.5663 0076401  11.9289 348.3709 14.78971867548155
FUNCUBE-1 (AO-73)       
1 39444U 13066AE  24035.45209420  .00006335  00000+0  65248-3 0  9994
2 39444  97.7033 357.5924 0048669 223.5943 136.1425 14.89725896550181
UWE-3                   
1 39446U 13066AG  24035.38307371  .00005322  00000+0  61933-3 0  9994
2 39446  97.7653 348.2978 0061106 299.7941  59.7206 14.84360152548843
BRITE-CA1 (TORONTO)     
1 40020U 14033L   24035.39119766  .00002249  00000+0  37288-3 0  9990
2 40020  97.8534 177.4616 0084502 158.5199 201.9587 14.68828777515228
DUCHIFAT-1              
1 40021U 14033M   24035.46148240  .00011034  00000+0  82303-3 0  9998
2 40021  98.0808  12.9973 0013402 180.1449 179.9774 15.02980431524019
NANOSATC-BR1            
1 40024U 14033Q   24035.47085812  .00009039  00000+0  73002-3 0  9995
2 40024  98.0627   2.4837 0008100 236.0905 123.9547 15.00052115523182
QB50P1                  
1 40025U 14033R   24035.39443678  .00007059  00000+0  61599-3 0  9993
2 40025  98.0249 352.1710 0009204 240.4706 119.5597 14.97128037522842
QB50P2                  
1 40032U 14033Y   24035.39166295  .00006809  00000+0  61051-3 0  9993
2 40032  97.9919 344.6958 0008560 236.3275 123.7129 14.96081741522657
PERSEUS-M2              
1 40037U 14033AD  24035.32255340  .00002213  00000+0  23753-3 0  9993
2 40037  97.9201 325.7983 0011930 278.1836  81.8028 14.89596359521891
PERSEUS-M1              
1 40039U 14033AF  24035.39248853  .00002776  00000+0  29839-3 0  9998
2 40039  97.9027 322.2939 0011728 277.1761  82.8122 14.89321330521760
POLYITAN-1              
1 40042U 14033AJ  24035.33120287  .00008364  00000+0  69541-3 0  9999
2 40042  98.0360 354.8099 0010977 232.6299 127.3924 14.98933202522764
TIGRISAT                
1 40043U 14033AK  24035.39830337  .00002507  00000+0  34632-3 0  9996
2 40043  97.6781 204.1293 0056911  20.2783 340.0671 14.77859261517695
AEROCUBE 6A             
1 40045U 14033AM  24035.47719164  .00005041  00000+0  63691-3 0  9994
2 40045  97.6597 214.5139 0052489   1.2007 358.9322 14.81330341517981
AEROCUBE 6B             
1 40046U 14033AN  24035.45450764  .00005372  00000+0  66576-3 0  9993
2 40046  97.6553 213.0908 0050980 357.3620   2.7317 14.82156055518025
UKUBE-1                 
1 40074U 14037F   24035.32226673  .00007026  00000+0  71081-3 0  9999
2 40074  98.3401 317.3487 0004923 132.6413 227.5220 14.91317544518815
BRITE-PL2 (HEWELIUSZ)   
1 40119U 14049B   24035.23083161  .00002902  00000+0  32223-3 0  9998
2 40119  97.8797 135.6647 0017490  85.7531 274.5683 14.87894957512652
GRIFEX                  
1 40379U 15003D   24035.52002438  .00412844  67355-4  12875-2 0  9998
2 40379  99.0781  40.3413 0029210 162.5268 197.7012 15.90762407499525
CP10 (EXOCUBE)          
1 40380U 15003E   24035.48532680  .00059987  00000+0  88524-3 0  9991
2 40380  99.1022  23.3463 0062034 221.6917 137.9594 15.52905626498497
EXACTVIEW 9             
1 40936U 15052G   24006.07845669  .00002815  00000+0  28083-3 0  9991
2 40936   6.0026  75.6655 0010627 288.6842  71.2132 14.79620840447345
AEROCUBE 5C             
1 40965U 15058B   24035.38991102  .00005771  00000+0  57271-3 0  9994
2 40965  64.7715  51.9153 0180844 350.2421   9.5188 14.81220993237217
AEROCUBE 7              
1 40966U 15058C   24035.42045067  .00007871  00000+0  75425-3 0  9994
2 40966  64.7702  46.6891 0177141 349.9398   9.8179 14.82651399237265
VELOX-II                
1 41171U 15077F   24035.17122788  .00053472  00000+0  11135-2 0  9997
2 41171  14.9912  19.9461 0005039 261.6684  98.3069 15.43669463450889
HORYU-4                 
1 41340U 16012D   24035.54059335  .00011564  00000+0  64054-3 0  9998
2 41340  31.0025 123.9428 0010781  61.4074 298.7649 15.12531695437875
E-ST@R-II               
1 41459U 16025D   24035.61606704  .00103905  00000+0  13793-2 0  9993
2 41459  98.1502 268.9253 0062893 359.1771   0.9367 15.55501296428677
RAVAN                   
1 41849U 16067B   24035.46360349  .00011468  00000+0  69564-3 0  9997
2 41849  98.0535 205.7298 0014896 121.4914 238.7772 15.10625940395771
CELTEE 1                
1 41850U 16067C   24035.43997635  .00006121  00000+0  44260-3 0  9996
2 41850  98.0869 198.3901 0000679  69.0791 291.0507 15.04433774395307
OPTICUBE 04             
1 41851U 16067D   24035.39103768  .00004801  00000+0  37575-3 0  9992
2 41851  98.0544 194.9848 0016367 141.3224 218.9174 15.01444156395150
AEROCUBE 8D             
1 41852U 16067E   24035.38726436  .00007771  00000+0  54808-3 0  9992
2 41852  98.0914 197.7826 0005018 187.5874 172.5276 15.05265184395258
AEROCUBE 8C             
1 41853U 16067F   24035.39505931  .00008372  00000+0  59092-3 0  9997
2 41853  98.0712 196.7136 0008853 126.6351 233.5689 15.05187738395245
PROMETHEUS 2-1          
1 41854U 16067G   24035.41478310  .00015634  00000+0  91868-3 0  9997
2 41854  98.0876 202.1452 0014230 150.4644 209.7392 15.11708128395498
PROMETHEUS 2-3          
1 41855U 16067H   24035.41014857  .00015553  00000+0  91497-3 0  9998
2 41855  98.0802 201.7604 0011990 159.9741 200.1960 15.11691803395491
DIDO-2                  
1 42000U 17008BE  24035.08804689  .00052100  00000+0  74897-3 0  9994
2 42000  97.1663  94.2219 0003243 267.9030  92.1854 15.55920483387779
AALTO-1                 
1 42775U 17036L   24035.61632173  .00042012  00000+0  77393-3 0  9995
2 42775  97.1271  65.5317 0006652 357.9120   2.2103 15.49020505368328
URSA MAIOR              
1 42776U 17036M   24035.58071183  .00057385  00000+0  86307-3 0  9994
2 42776  97.1260  67.9585 0005123 349.4925  10.6221 15.54653209368469
DIAMOND RED             
1 42783U 17036U   24035.59349767  .00098178  00000+0  10016-2 0  9997
2 42783  97.1172  72.9839 0003185   0.1413 359.9847 15.64763964368796
DIAMOND GREEN           
1 42785U 17036W   24035.59564708  .00138253  00000+0  10902-2 0  9996
2 42785  97.1130  74.0186 0002480 353.7147   6.4084 15.71000462368936
DIAMOND BLUE            
1 42786U 17036X   24035.57725251  .00121210  00000+0  11070-2 0  9999
2 42786  97.1167  73.5055 0002845 349.5209  10.5992 15.67466154368891
CICERO 6                
1 42793U 17036AE  24035.05530031  .00060419  00000+0  82069-3 0  9990
2 42793  97.1166  71.3334 0003930 355.2471   4.8747 15.57417431368735
CORVUS BC2              
1 42846U 17042X   24035.50709813  .00003137  00000+0  28157-3 0  9994
2 42846  97.3735 228.1715 0009014 141.9315 218.2546 14.96365221357444
CORVUS BC1              
1 42847U 17042Y   24035.48147944  .00004820  00000+0  42848-3 0  9996
2 42847  97.3730 228.5285 0009087 139.2480 220.9424 14.96509422357458
MIRATA                  
1 43015U 17073C   24035.57124331  .00021795  00000+0  11622-2 0  9998
2 43015  97.6099 282.4025 0189623 355.5049   4.4463 15.00965925336249
MAKERSAT 0              
1 43016U 17073D   24035.58991575  .00014517  00000+0  88645-3 0  9996
2 43016  97.6023 278.5471 0209255  11.1866 349.3901 14.93889810335947
CORVUS BC3              
1 43118U 18004H   24035.19238162  .00060188  00000+0  82863-3 0  9998
2 43118  97.3015 116.5453 0004647   9.7754 350.3591 15.57052541337882
GOMX-4B                 
1 43196U 18015E   24035.43962850  .00036899  00000+0  68146-3 0  9991
2 43196  97.5957 200.5330 0010565  84.8469 275.3987 15.48940914334732
GOMX-4A                 
1 43197U 18015F   24035.59219839  .00044493  00000+0  67652-3 0  9991
2 43197  97.5919 204.2745 0009499  75.2319 284.9986 15.54374810335003
CUBEBEL-1 (BSUSAT-1)    
1 43666U 18083E   24034.74571701  .00246528  00000+0  15120-2 0  9997
2 43666  97.3427  76.7804 0003107   0.6213 359.5056 15.76581610293090
